[{"OBJECT_NAME":"FENGYUN 1C DEB","OBJECT_ID":"1999-025BJK","EPOCH":"2026-03-10T01:41:44.387232","MEAN_MOTION":14.12232681,"ECCENTRICITY":0.00480508,"INCLINATION":98.7659,"RA_OF_ASC_NODE":104.7304,"ARG_OF_PERICENTER":183.5654,"MEAN_ANOMALY":204.4291,"EPHEMERIS_TYPE":0,"CLASSIFICATION_TYPE":"U","NORAD_CAT_ID":31181,"ELEMENT_SET_NO":999,"REV_AT_EPOCH":97000,"BSTAR":0.00094605412,"MEAN_MOTION_DOT":1.715e-5,"MEAN_MOTION_DDOT":0},{"OBJECT_NAME":"FENGYUN 1C DEB","OBJECT_ID":"1999-025BJL","EPOCH":"2026-03-14T10:25:13.647936","MEAN_MOTION":14.14707377,"ECCENTRICITY":0.00216822,"INCLINATION":98.6913,"RA_OF_ASC_NODE":64.8196,"ARG_OF_PERICENTER":235.2762,"MEAN_ANOMALY":279.8923,"EPHEMERIS_TYPE":0,"CLASSIFICATION_TYPE":"U","NORAD_CAT_ID":31182,"ELEMENT_SET_NO":999,"REV_AT_EPOCH":97377,"BSTAR":0.00037494619,"MEAN_MOTION_DOT":6.8e-6,"MEAN_MOTION_DDOT":0},{"OBJECT_NAME":"FENGYUN 1C DEB","OBJECT_ID":"1999-025BJM","EPOCH":"2026-03-13T22:07:58.427328","MEAN_MOTION":14.51562398,"ECCENTRICITY":0.00454176,"INCLINATION":99.0451,"RA_OF_ASC_NODE":68.4127,"ARG_OF_PERICENTER":193.1285,"MEAN_ANOMALY":197.1503,"EPHEMERIS_TYPE":0,"CLASSIFICATION_TYPE":"U","NORAD_CAT_ID":31183,"ELEMENT_SET_NO":999,"REV_AT_EPOCH":98805,"BSTAR":0.0011923686,"MEAN_MOTION_DOT":4.786e-5,"MEAN_MOTION_DDOT":0},{"OBJECT_NAME":"FENGYUN 1C DEB","OBJECT_ID":"1999-025BJP","EPOCH":"2026-03-01T05:01:55.435296","MEAN_MOTION":14.03076352,"ECCENTRICITY":0.0039545,"INCLINATION":98.8322,"RA_OF_ASC_NODE":59.3564,"ARG_OF_PERICENTER":248.0241,"MEAN_ANOMALY":111.6721,"EPHEMERIS_TYPE":0,"CLASSIFICATION_TYPE":"U","NORAD_CAT_ID":31185,"ELEMENT_SET_NO":999,"REV_AT_EPOCH":63437,"BSTAR":0.00039887,"MEAN_MOTION_DOT":5.81e-6,"MEAN_MOTION_DDOT":0},{"OBJECT_NAME":"FENGYUN 1C DEB","OBJECT_ID":"1999-025BJQ","EPOCH":"2026-03-13T00:36:55.256256","MEAN_MOTION":14.13086519,"ECCENTRICITY":0.00254911,"INCLINATION":99.1792,"RA_OF_ASC_NODE":354.6456,"ARG_OF_PERICENTER":166.6912,"MEAN_ANOMALY":257.7315,"EPHEMERIS_TYPE":0,"CLASSIFICATION_TYPE":"U","NORAD_CAT_ID":31186,"ELEMENT_SET_NO":999,"REV_AT_EPOCH":97380,"BSTAR":0.00045056074,"MEAN_MOTION_DOT":7.97e-6,"MEAN_MOTION_DDOT":0},{"OBJECT_NAME":"FENGYUN 1C DEB","OBJECT_ID":"1999-025BJR","EPOCH":"2026-03-10T21:17:14.869824","MEAN_MOTION":14.62890079,"ECCENTRICITY":0.02111808,"INCLINATION":99.236,"RA_OF_ASC_NODE":308.6059,"ARG_OF_PERICENTER":316.6511,"MEAN_ANOMALY":41.8241,"EPHEMERIS_TYPE":0,"CLASSIFICATION_TYPE":"U","NORAD_CAT_ID":31187,"ELEMENT_SET_NO":999,"REV_AT_EPOCH":70387,"BSTAR":0.0030339704,"MEAN_MOTION_DOT":0.00021414,"MEAN_MOTION_DDOT":0},{"OBJECT_NAME":"FENGYUN 1C DEB","OBJECT_ID":"1999-025BJS","EPOCH":"2026-03-14T20:06:56.089152","MEAN_MOTION":14.24510935,"ECCENTRICITY":0.00569686,"INCLINATION":98.7377,"RA_OF_ASC_NODE":146.1637,"ARG_OF_PERICENTER":344.4118,"MEAN_ANOMALY":80.9435,"EPHEMERIS_TYPE":0,"CLASSIFICATION_TYPE":"U","NORAD_CAT_ID":31188,"ELEMENT_SET_NO":999,"REV_AT_EPOCH":97647,"BSTAR":0.001316792,"MEAN_MOTION_DOT":3.061e-5,"MEAN_MOTION_DDOT":0},{"OBJECT_NAME":"FENGYUN 1C DEB","OBJECT_ID":"1999-025BJU","EPOCH":"2026-03-12T12:00:45.841248","MEAN_MOTION":14.03833228,"ECCENTRICITY":0.0067831,"INCLINATION":98.8172,"RA_OF_ASC_NODE":86.5324,"ARG_OF_PERICENTER":9.9402,"MEAN_ANOMALY":350.3089,"EPHEMERIS_TYPE":0,"CLASSIFICATION_TYPE":"U","NORAD_CAT_ID":31190,"ELEMENT_SET_NO":999,"REV_AT_EPOCH":96806,"BSTAR":0.00073671,"MEAN_MOTION_DOT":1.142e-5,"MEAN_MOTION_DDOT":0},{"OBJECT_NAME":"FENGYUN 1C DEB","OBJECT_ID":"1999-025BJV","EPOCH":"2026-03-13T16:20:54.938688","MEAN_MOTION":14.41063989,"ECCENTRICITY":0.00914891,"INCLINATION":98.7778,"RA_OF_ASC_NODE":341.0126,"ARG_OF_PERICENTER":284.8921,"MEAN_ANOMALY":74.2149,"EPHEMERIS_TYPE":0,"CLASSIFICATION_TYPE":"U","NORAD_CAT_ID":31191,"ELEMENT_SET_NO":999,"REV_AT_EPOCH":99322,"BSTAR":0.00042182992,"MEAN_MOTION_DOT":1.377e-5,"MEAN_MOTION_DDOT":0},{"OBJECT_NAME":"FENGYUN 1C DEB","OBJECT_ID":"1999-025BJW","EPOCH":"2026-03-14T16:24:48.160800","MEAN_MOTION":14.21293014,"ECCENTRICITY":0.02571723,"INCLINATION":98.5649,"RA_OF_ASC_NODE":59.6402,"ARG_OF_PERICENTER":196.6629,"MEAN_ANOMALY":162.5982,"EPHEMERIS_TYPE":0,"CLASSIFICATION_TYPE":"U","NORAD_CAT_ID":31192,"ELEMENT_SET_NO":999,"REV_AT_EPOCH":98049,"BSTAR":0.00025985984,"MEAN_MOTION_DOT":7.44e-6,"MEAN_MOTION_DDOT":0},{"OBJECT_NAME":"FENGYUN 1C DEB","OBJECT_ID":"1999-025BJY","EPOCH":"2026-03-14T15:54:22.847616","MEAN_MOTION":14.37221573,"ECCENTRICITY":0.00583674,"INCLINATION":98.959,"RA_OF_ASC_NODE":331.4993,"ARG_OF_PERICENTER":8.9447,"MEAN_ANOMALY":351.2764,"EPHEMERIS_TYPE":0,"CLASSIFICATION_TYPE":"U","NORAD_CAT_ID":31194,"ELEMENT_SET_NO":999,"REV_AT_EPOCH":98447,"BSTAR":0.0011225506,"MEAN_MOTION_DOT":3.362e-5,"MEAN_MOTION_DDOT":0},{"OBJECT_NAME":"FENGYUN 1C DEB","OBJECT_ID":"1999-025BJZ","EPOCH":"2026-03-14T12:44:39.612192","MEAN_MOTION":14.0803529,"ECCENTRICITY":0.01705855,"INCLINATION":98.767,"RA_OF_ASC_NODE":109.3269,"ARG_OF_PERICENTER":282.6157,"MEAN_ANOMALY":75.5985,"EPHEMERIS_TYPE":0,"CLASSIFICATION_TYPE":"U","NORAD_CAT_ID":31195,"ELEMENT_SET_NO":999,"REV_AT_EPOCH":97390,"BSTAR":0.00016760482,"MEAN_MOTION_DOT":2.81e-6,"MEAN_MOTION_DDOT":0},{"OBJECT_NAME":"FENGYUN 1C DEB","OBJECT_ID":"1999-025BKA","EPOCH":"2026-03-14T07:45:35.362944","MEAN_MOTION":14.25725867,"ECCENTRICITY":0.0056863,"INCLINATION":98.5246,"RA_OF_ASC_NODE":89.0219,"ARG_OF_PERICENTER":305.8608,"MEAN_ANOMALY":53.7299,"EPHEMERIS_TYPE":0,"CLASSIFICATION_TYPE":"U","NORAD_CAT_ID":31196,"ELEMENT_SET_NO":999,"REV_AT_EPOCH":64800,"BSTAR":0.00054919361,"MEAN_MOTION_DOT":1.283e-5,"MEAN_MOTION_DDOT":0},{"OBJECT_NAME":"FENGYUN 1C DEB","OBJECT_ID":"1999-025BKC","EPOCH":"2026-03-14T12:31:58.906848","MEAN_MOTION":13.75550931,"ECCENTRICITY":0.02051327,"INCLINATION":98.6076,"RA_OF_ASC_NODE":173.6168,"ARG_OF_PERICENTER":104.8982,"MEAN_ANOMALY":257.4984,"EPHEMERIS_TYPE":0,"CLASSIFICATION_TYPE":"U","NORAD_CAT_ID":31198,"ELEMENT_SET_NO":999,"REV_AT_EPOCH":64015,"BSTAR":0.00010538631,"MEAN_MOTION_DOT":8.2e-7,"MEAN_MOTION_DDOT":0},{"OBJECT_NAME":"FENGYUN 1C DEB","OBJECT_ID":"1999-025BKD","EPOCH":"2026-03-11T21:36:54.025056","MEAN_MOTION":14.10059951,"ECCENTRICITY":0.00647748,"INCLINATION":98.727,"RA_OF_ASC_NODE":55.9413,"ARG_OF_PERICENTER":7.9654,"MEAN_ANOMALY":21.9902,"EPHEMERIS_TYPE":0,"CLASSIFICATION_TYPE":"U","NORAD_CAT_ID":31199,"ELEMENT_SET_NO":999,"REV_AT_EPOCH":97416,"BSTAR":0.00025715886,"MEAN_MOTION_DOT":4.2e-6,"MEAN_MOTION_DDOT":0},{"OBJECT_NAME":"FENGYUN 1C DEB","OBJECT_ID":"1999-025BKF","EPOCH":"2026-03-14T14:25:37.300224","MEAN_MOTION":14.35733231,"ECCENTRICITY":0.01420401,"INCLINATION":98.9971,"RA_OF_ASC_NODE":303.4646,"ARG_OF_PERICENTER":81.7316,"MEAN_ANOMALY":308.5182,"EPHEMERIS_TYPE":0,"CLASSIFICATION_TYPE":"U","NORAD_CAT_ID":31201,"ELEMENT_SET_NO":999,"REV_AT_EPOCH":98569,"BSTAR":0.00075945466,"MEAN_MOTION_DOT":2.412e-5,"MEAN_MOTION_DDOT":0}]
